{
  "type": "FeatureCollection",
  "features": [
    {
      "type": "Feature",
      "properties": {
        "norad_id": 46805,
        "name": "COSMOS 2547 (705K)",
        "group": "glo-ops",
        "lat": 13.48813275432924,
        "lon": -154.68987246067692,
        "alt_km": 19142.21395910142,
        "timestamp": "2025-12-10T18:57:00.326503+00:00",
        "meta_object_name": "COSMOS 2547 (705K)",
        "meta_object_id": "2020-075A",
        "meta_epoch": "2025-12-08T21:25:56.196192",
        "meta_mean_motion": 2.13099854,
        "meta_eccentricity": 0.00063847,
        "meta_inclination": 64.5958,
        "meta_ra_of_asc_node": 198.8249,
        "meta_arg_of_pericenter": 229.7163,
        "meta_mean_anomaly": 130.3027,
        "meta_ephemeris_type": 0,
        "meta_classification_type": "U",
        "meta_norad_cat_id": 46805,
        "meta_element_set_no": 999,
        "meta_rev_at_epoch": 3985,
        "meta_bstar": 0,
        "meta_mean_motion_dot": 4.5e-07,
        "meta_mean_motion_ddot": 0,
        "tle_line1": "1 46805U 20075A   25342.89301153  .00000045  00000+0  00000+0 0  9990",
        "tle_line2": "2 46805  64.5958 198.8249 0006384 229.7163 130.3027  2.13099854 39856"
      },
      "geometry": {
        "type": "Point",
        "coordinates": [
          -154.68987246067692,
          13.48813275432924
        ]
      }
    },
    {
      "type": "Feature",
      "properties": {
        "norad_id": 52984,
        "name": "COSMOS 2557 (706K)",
        "group": "glo-ops",
        "lat": -56.7300014889753,
        "lon": -171.99146052335928,
        "alt_km": 19105.466739430558,
        "timestamp": "2025-12-10T18:57:00.326514+00:00",
        "meta_object_name": "COSMOS 2557 (706K)",
        "meta_object_id": "2022-075A",
        "meta_epoch": "2025-12-07T04:21:00.419904",
        "meta_mean_motion": 2.13101754,
        "meta_eccentricity": 0.00137049,
        "meta_inclination": 64.4129,
        "meta_ra_of_asc_node": 321.247,
        "meta_arg_of_pericenter": 276.9,
        "meta_mean_anomaly": 82.939,
        "meta_ephemeris_type": 0,
        "meta_classification_type": "U",
        "meta_norad_cat_id": 52984,
        "meta_element_set_no": 999,
        "meta_rev_at_epoch": 2662,
        "meta_bstar": 0,
        "meta_mean_motion_dot": -5.2e-07,
        "meta_mean_motion_ddot": 0,
        "tle_line1": "1 52984U 22075A   25341.18125486 -.00000052  00000+0  00000+0 0  9990",
        "tle_line2": "2 52984  64.4129 321.2470 0013704 276.9000  82.9390  2.13101754 26625"
      },
      "geometry": {
        "type": "Point",
        "coordinates": [
          -171.99146052335928,
          -56.7300014889753
        ]
      }
    },
    {
      "type": "Feature",
      "properties": {
        "norad_id": 54031,
        "name": "COSMOS 2559 (707K)",
        "group": "glo-ops",
        "lat": 24.0242170042878,
        "lon": -26.455591785805407,
        "alt_km": 19156.57439553765,
        "timestamp": "2025-12-10T18:57:00.326525+00:00",
        "meta_object_name": "COSMOS 2559 (707K)",
        "meta_object_id": "2022-130A",
        "meta_epoch": "2025-12-10T06:50:46.265280",
        "meta_mean_motion": 2.13101297,
        "meta_eccentricity": 0.0011863,
        "meta_inclination": 64.3837,
        "meta_ra_of_asc_node": 321.2275,
        "meta_arg_of_pericenter": 192.5527,
        "meta_mean_anomaly": 167.4169,
        "meta_ephemeris_type": 0,
        "meta_classification_type": "U",
        "meta_norad_cat_id": 54031,
        "meta_element_set_no": 999,
        "meta_rev_at_epoch": 2466,
        "meta_bstar": 0,
        "meta_mean_motion_dot": -5.3e-07,
        "meta_mean_motion_ddot": 0,
        "tle_line1": "1 54031U 22130A   25344.28525770 -.00000053  00000+0  00000+0 0  9992",
        "tle_line2": "2 54031  64.3837 321.2275 0011863 192.5527 167.4169  2.13101297 24666"
      },
      "geometry": {
        "type": "Point",
        "coordinates": [
          -26.455591785805407,
          24.0242170042878
        ]
      }
    },
    {
      "type": "Feature",
      "properties": {
        "norad_id": 54377,
        "name": "COSMOS 2564 (761)",
        "group": "glo-ops",
        "lat": 30.075365659987618,
        "lon": 3.0977216999333645,
        "alt_km": 19115.07379644837,
        "timestamp": "2025-12-10T18:57:00.326535+00:00",
        "meta_object_name": "COSMOS 2564 (761)",
        "meta_object_id": "2022-161A",
        "meta_epoch": "2025-12-10T03:06:26.665056",
        "meta_mean_motion": 2.13102032,
        "meta_eccentricity": 0.000863,
        "meta_inclination": 64.738,
        "meta_ra_of_asc_node": 198.9857,
        "meta_arg_of_pericenter": 205.1484,
        "meta_mean_anomaly": 154.8805,
        "meta_ephemeris_type": 0,
        "meta_classification_type": "U",
        "meta_norad_cat_id": 54377,
        "meta_element_set_no": 999,
        "meta_rev_at_epoch": 2360,
        "meta_bstar": 0,
        "meta_mean_motion_dot": 4.5e-07,
        "meta_mean_motion_ddot": 0,
        "tle_line1": "1 54377U 22161A   25344.12947529  .00000045  00000+0  00000+0 0  9992",
        "tle_line2": "2 54377  64.7380 198.9857 0008630 205.1484 154.8805  2.13102032 23600"
      },
      "geometry": {
        "type": "Point",
        "coordinates": [
          3.0977216999333645,
          30.075365659987618
        ]
      }
    },
    {
      "type": "Feature",
      "properties": {
        "norad_id": 57517,
        "name": "COSMOS 2569 (703K)",
        "group": "glo-ops",
        "lat": 39.081401011919255,
        "lon": -123.04339385548047,
        "alt_km": 19148.41145878519,
        "timestamp": "2025-12-10T18:57:00.326546+00:00",
        "meta_object_name": "COSMOS 2569 (703K)",
        "meta_object_id": "2023-114A",
        "meta_epoch": "2025-12-09T04:54:16.689312",
        "meta_mean_motion": 2.13103889,
        "meta_eccentricity": 0.0010394,
        "meta_inclination": 65.1923,
        "meta_ra_of_asc_node": 79.033,
        "meta_arg_of_pericenter": 287.0321,
        "meta_mean_anomaly": 72.8717,
        "meta_ephemeris_type": 0,
        "meta_classification_type": "U",
        "meta_norad_cat_id": 57517,
        "meta_element_set_no": 999,
        "meta_rev_at_epoch": 1821,
        "meta_bstar": 0,
        "meta_mean_motion_dot": -1.4e-07,
        "meta_mean_motion_ddot": 0,
        "tle_line1": "1 57517U 23114A   25343.20435983 -.00000014  00000+0  00000+0 0  9991",
        "tle_line2": "2 57517  65.1923  79.0330 0010394 287.0321  72.8717  2.13103889 18214"
      },
      "geometry": {
        "type": "Point",
        "coordinates": [
          -123.04339385548047,
          39.081401011919255
        ]
      }
    },
    {
      "type": "Feature",
      "properties": {
        "norad_id": 63130,
        "name": "COSMOS 2584 (704K)",
        "group": "glo-ops",
        "lat": -38.30907739579689,
        "lon": -79.15911195191525,
        "alt_km": 19115.42973062117,
        "timestamp": "2025-12-10T18:57:00.326558+00:00",
        "meta_object_name": "COSMOS 2584 (704K)",
        "meta_object_id": "2025-042A",
        "meta_epoch": "2025-12-08T03:39:29.178720",
        "meta_mean_motion": 2.13102925,
        "meta_eccentricity": 0.0007602,
        "meta_inclination": 64.9737,
        "meta_ra_of_asc_node": 79.3022,
        "meta_arg_of_pericenter": 215.9611,
        "meta_mean_anomaly": 144.0025,
        "meta_ephemeris_type": 0,
        "meta_classification_type": "U",
        "meta_norad_cat_id": 63130,
        "meta_element_set_no": 999,
        "meta_rev_at_epoch": 597,
        "meta_bstar": 0,
        "meta_mean_motion_dot": -1.2e-07,
        "meta_mean_motion_ddot": 0,
        "tle_line1": "1 63130U 25042A   25342.15242105 -.00000012  00000+0  00000+0 0  9994",
        "tle_line2": "2 63130  64.9737  79.3022 0007602 215.9611 144.0025  2.13102925  5976"
      },
      "geometry": {
        "type": "Point",
        "coordinates": [
          -79.15911195191525,
          -38.30907739579689
        ]
      }
    },
    {
      "type": "Feature",
      "properties": {
        "norad_id": 65590,
        "name": "COSMOS 2596 (708K)",
        "group": "glo-ops",
        "lat": -16.481187418048787,
        "lon": -46.49490075175143,
        "alt_km": 19103.621689599793,
        "timestamp": "2025-12-10T18:57:00.326569+00:00",
        "meta_object_name": "COSMOS 2596 (708K)",
        "meta_object_id": "2025-206B",
        "meta_epoch": "2025-12-10T13:06:28.122048",
        "meta_mean_motion": 2.13100337,
        "meta_eccentricity": 0.0014014,
        "meta_inclination": 64.7453,
        "meta_ra_of_asc_node": 321.5499,
        "meta_arg_of_pericenter": 305.8933,
        "meta_mean_anomaly": 208.9804,
        "meta_ephemeris_type": 0,
        "meta_classification_type": "U",
        "meta_norad_cat_id": 65590,
        "meta_element_set_no": 999,
        "meta_rev_at_epoch": 189,
        "meta_bstar": 0,
        "meta_mean_motion_dot": -5.2e-07,
        "meta_mean_motion_ddot": 0,
        "tle_line1": "1 65590U 25206B   25344.54615882 -.00000052  00000+0  00000+0 0  9993",
        "tle_line2": "2 65590  64.7453 321.5499 0014014 305.8933 208.9804  2.13100337  1899"
      },
      "geometry": {
        "type": "Point",
        "coordinates": [
          -46.49490075175143,
          -16.481187418048787
        ]
      }
    }
  ]
}